STARLINK-32517          
1 61980U 24210X   25029.47537917  .00006038  00000+0  15168-3 0  9994
2 61980  43.0037 304.0785 0001156 243.7463 116.3275 15.40702805 12990
STARLINK-32522          
1 61981U 24210Y   25029.81518721 -.00019504  00000+0 -46013-3 0  9992
2 61981  43.0025 302.3344 0002107 280.4425  79.6194 15.40743539 13095
STARLINK-32560          
1 61982U 24210Z   25029.11107001 -.00003362  00000+0 -73334-4 0  9993
2 61982  43.0009 306.5115 0001151 290.9102  69.1631 15.40671597 12987
STARLINK-11433 [DTC]    
1 62008U 24213A   25029.29494044  .00000878  00000+0  93533-5 0  9992
2 62008  53.1613 235.2807 0000405  74.1447 285.9618 15.76729714 11392
STARLINK-11262 [DTC]    
1 62009U 24213B   25029.85615914  .00001511  00000+0  13232-4 0  9998
2 62009  53.1510 233.1135 0001611  80.9975 279.1228 15.76731170 11471
STARLINK-11326 [DTC]    
1 62010U 24213C   25029.55337359 -.00000593  00000+0  37228-6 0  9994
2 62010  53.1552 234.0470 0000882  99.2368 260.8752 15.76721563 11439
STARLINK-11330 [DTC]    
1 62011U 24213D   25029.83622005  .00002699  00000+0  20499-4 0  9999
2 62011  53.1583 232.9829 0002966  84.4014 275.7345 15.76728581 11472
STARLINK-11363 [DTC]    
1 62012U 24213E   25029.82645228  .00001206  00000+0  11379-4 0  9991
2 62012  53.1532 232.9164 0002029  91.8684 268.2570 15.76724699 11477
STARLINK-11377 [DTC]    
1 62013U 24213F   25029.28517624  .00002290  00000+0  17981-4 0  9999
2 62013  53.1627 235.2280 0000947  87.0782 273.0347 15.76730733 11394
STARLINK-11385 [DTC]    
1 62014U 24213G   25029.84150960  .00000964  00000+0  98894-5 0  9997
2 62014  53.1568 233.0200 0001579  90.3973 269.7229 15.76733062 11476
STARLINK-11396 [DTC]    
1 62015U 24213H   25029.54361140  .00000116  00000+0  47069-5 0  9996
2 62015  53.1590 233.9847 0001078 111.1868 248.9268 15.76719320 11436
STARLINK-11393 [DTC]    
1 62016U 24213J   25029.56314055 -.00001168  00000+0 -31404-5 0  9998
2 62016  53.1557 234.1149 0001121  77.0379 283.0767 15.76720556 12375
STARLINK-11343 [DTC]    
1 62017U 24213K   25029.84638929  .00000522  00000+0  71864-5 0  9994
2 62017  53.1564 233.0513 0001354  88.3600 271.7576 15.76735536 11473
STARLINK-11411 [DTC]    
1 62018U 24213L   25029.85127625  .00002298  00000+0  18029-4 0  9997
2 62018  53.1593 233.0821 0000913  68.4352 291.6767 15.76729162 11472
STARLINK-11404 [DTC]    
1 62019U 24213M   25029.82156788  .00005162  00000+0  35520-4 0  9995
2 62019  53.1558 232.8833 0001414  99.2531 260.8650 15.76727685 11479
STARLINK-11378 [DTC]    
1 62020U 24213N   25028.98777903 -.00003207  00000+0 -15608-4 0  9996
2 62020  53.1588 236.9226 0000277 114.1094 245.9956 15.76741133 11345
STARLINK-32520          
1 62021U 24213P   25029.02427959 -.00000029  00000+0  92439-5 0  9992
2 62021  53.1588 250.9559 0001030  93.3705 266.7418 15.39621388 11157
STARLINK-32539          
1 62022U 24213Q   25029.84331075 -.00000818  00000+0 -10467-4 0  9993
2 62022  53.1592 239.5377 0000978  75.3393 284.7721 15.39615745 11389
STARLINK-32334          
1 62023U 24213R   25029.85888373  .00000050  00000+0  11240-4 0  9999
2 62023  53.1628 246.9254 0001349  77.5919 282.5237 15.39616087 11284
STARLINK-32504          
1 62024U 24213S   25029.33502316  .00000918  00000+0  32943-4 0  9999
2 62024  53.1576 250.0577 0001364  78.8112 281.3046 15.39616838 11196
STARLINK-32493          
1 62025U 24213T   25029.88674608 -.00004082  00000+0 -92159-4 0  9997
2 62025  53.1560 247.0952 0000682  23.9621 336.1415 15.39609477 11281
STARLINK-32561          
1 62026U 24213U   25029.88209827 -.00000986  00000+0 -14659-4 0  9993
2 62026  53.1611 247.0685 0001397  92.7834 267.3331 15.39628775 11280
STARLINK-32512          
1 62027U 24213V   25029.87746467 -.00003347  00000+0 -73741-4 0  9990
2 62027  53.1603 247.0367 0001561  80.1200 279.9981 15.39611709 11289
STARLINK-32637          
1 62032U 24216A   25029.72657907 -.00000745  00000+0 -10570-4 0  9993
2 62032  43.0018  35.0966 0001418 266.5042  93.5653 15.40699357 11898
STARLINK-32582          
1 62033U 24216B   25029.49842852  .00008337  00000+0  20619-3 0  9990
2 62033  43.0069  35.9548 0001789 258.6796 101.3860 15.40763312 11867
STARLINK-32615          
1 62034U 24216C   25029.70865828 -.00000836  00000+0 -12755-4 0  9994
2 62034  43.0034  34.9588 0000817 274.6357  85.4406 15.40701025 10731
STARLINK-32592          
1 62035U 24216D   25029.48469011  .00001174  00000+0  35369-4 0  9994
2 62035  43.0012  35.8536 0000956 286.8463  73.2289 15.40700485 11877
STARLINK-32225          
1 62036U 24216E   25029.71761097  .00001777  00000+0  49786-4 0  9997
2 62036  43.0014  35.0271 0001346 264.6959  95.3744 15.40700679 11962
STARLINK-32595          
1 62037U 24216F   25029.29727877 -.00000317  00000+0 -32011-6 0  9995
2 62037  43.0046  37.0267 0001806 280.1327  79.9326 15.40704433 11841
STARLINK-32477          
1 62038U 24216G   25029.73330162 -.00000616  00000+0 -74808-5 0  9993
2 62038  43.0027  35.1471 0001363 270.5258  89.5442 15.40698550 10736
STARLINK-32480          
1 62039U 24216H   25029.70192604  .00000965  00000+0  30342-4 0  9997
2 62039  43.0015  34.9082 0000906 245.6104 114.4658 15.40710996 10730
STARLINK-32510          
1 62040U 24216J   25029.73056759  .00001359  00000+0  39778-4 0  9992
2 62040  43.0013  34.2520 0001235 271.9713  88.1002 15.40700995 11902
STARLINK-32456          
1 62041U 24216K   25029.71312556  .00001531  00000+0  43892-4 0  9995
2 62041  43.0043  34.9902 0001812 272.3127  87.7522 15.40708590 11891
STARLINK-32509          
1 62042U 24216L   25029.72208628 -.00000709  00000+0 -96953-5 0  9996
2 62042  43.0028  35.0622 0002284 258.7629 101.2971 15.40711186 11890
STARLINK-32491          
1 62043U 24216M   25029.34831098  .00000277  00000+0  13910-4 0  9997
2 62043  43.0015  36.5435 0001981 277.7118  82.3513 15.40699250 11845
STARLINK-32577          
1 62044U 24216N   25029.49400656  .00002546  00000+0  68171-4 0  9996
2 62044  43.0030  35.9221 0000137 234.4361 125.6483 15.40697990 11870
STARLINK-32618          
1 62045U 24216P   25029.70416717 -.00002599  00000+0 -54960-4 0  9997
2 62045  43.0022  34.9204 0001460 273.5716  86.4974 15.40704262 11892
STARLINK-32598          
1 62046U 24216Q   25029.71985441  .00001858  00000+0  51744-4 0  9996
2 62046  43.0044  35.0423 0001570 276.1481  83.9197 15.40695278 11897
STARLINK-32630          
1 62047U 24216R   25029.35951383  .00001544  00000+0  44200-4 0  9996
2 62047  43.0035  36.6307 0000601 262.7651  97.3137 15.40701431 11847
STARLINK-32599          
1 62048U 24216S   25029.42210105  .00003937  00000+0  10148-3 0  9996
2 62048  43.0021  36.2393 0000525 235.4854 124.5953 15.40694848 11854
STARLINK-32473          
1 62049U 24216T   25029.70641377 -.00000556  00000+0 -60494-5 0  9994
2 62049  43.0021  34.9379 0001154 261.8762  98.1963 15.40706902 10732
STARLINK-32492          
1 62050U 24216U   25029.69520504  .00000919  00000+0  29261-4 0  9999
2 62050  43.0072  34.8481 0001798 283.0668  76.9988 15.40707532 11897
STARLINK-32496          
1 62051U 24216V   25029.35279080  .00000860  00000+0  27853-4 0  9993
2 62051  43.0016  36.5756 0001520 255.7641 104.3046 15.40697472 11847
STARLINK-32495          
1 62052U 24216W   25029.71089309  .00001489  00000+0  42894-4 0  9997
2 62052  43.0042  34.9709 0001023 284.1319  75.9424 15.40703009 11895
STARLINK-32494          
1 62053U 24216X   25029.49624260  .00004824  00000+0  12274-3 0  9998
2 62053  43.0015  35.9367 0000722 239.5029 120.5756 15.40683122 10701
STARLINK-32408          
1 62054U 24216Y   25029.72433272  .00001388  00000+0  40496-4 0  9996
2 62054  43.0021  35.0774 0002119 280.7271  79.3347 15.40704638 11907
STARLINK-32571          
1 62055U 24216Z   25029.71537301  .00002364  00000+0  63847-4 0  9994
2 62055  43.0012  35.0053 0000889 267.0044  93.0711 15.40698081 11997
STARLINK-11465 [DTC]    
1 62057U 24217A   25029.90193890 -.00000138  00000+0  31577-5 0  9993
2 62057  53.1576 261.8225 0001270  99.6126 260.5039 15.76717408 11753
STARLINK-11426 [DTC]    
1 62058U 24217B   25028.94624265  .00005769  00000+0  39185-4 0  9998
2 62058  53.1552 266.5263 0001384 149.1578 210.9525 15.76752670 11546
STARLINK-11454 [DTC]    
1 62059U 24217C   25029.91667824 -.00062466  00000+0 -51411-3 0  9999
2 62059  53.1581 261.8553 0001032  86.9241 305.3816 15.69733721  5941
STARLINK-11473 [DTC]    
1 62060U 24217D   25029.34777464  .00000159  00000+0  61732-5 0  9998
2 62060  53.1579 264.7733 0001201  85.3426 274.7729 15.69705141 11661
STARLINK-11429 [DTC]    
1 62061U 24217E   25029.91667824 -.00049517  00000+0 -40605-3 0  9997
2 62061  53.1580 261.7983 0000647  83.9323 336.1139 15.69725480  5941
STARLINK-11470 [DTC]    
1 62062U 24217F   25029.90117645  .00000144  00000+0  60487-5 0  9991
2 62062  53.1580 261.8168 0000958  47.7802 312.3297 15.69701069 11690
STARLINK-11427 [DTC]    
1 62063U 24217G   25029.02451973 -.00001264  00000+0 -55735-5 0  9996
2 62063  53.1601 266.3056 0001033 110.1536 249.9593 15.69708801 11612
STARLINK-11456 [DTC]    
1 62064U 24217H   25029.91667824  .00023389  00000+0  19746-3 0  9999
2 62064  53.1584 261.5705 0000712  94.2166  76.7730 15.69698009  6054
STARLINK-11474 [DTC]    
1 62065U 24217J   25029.91667824 -.00884529  00000+0 -75404-2 0  9995
2 62065  53.1587 261.4062 0000845  68.2244 183.1287 15.71446126  6052
STARLINK-11463 [DTC]    
1 62066U 24217K   25029.06856092  .00000645  00000+0  10183-4 0  9991
2 62066  53.1586 265.8634 0001084  84.4178 275.6963 15.69717421 11620
STARLINK-11472 [DTC]    
1 62067U 24217L   25029.93060284  .00000969  00000+0  12861-4 0  9992
2 62067  53.1557 262.0113 0001842  88.0409 272.0819 15.69714038 11687
STARLINK-11467 [DTC]    
1 62068U 24217M   25029.06365589 -.00000330  00000+0  21366-5 0  9997
2 62068  53.1593 265.8311 0001132  66.0468 294.0669 15.69716603 11623
